[{"OBJECT_NAME":"PRAETORIAN SDA_614","OBJECT_ID":"2025-203N","EPOCH":"2026-03-09T14:45:09.374112","MEAN_MOTION":13.84765738,"ECCENTRICITY":0.0008407,"INCLINATION":81.2981,"RA_OF_ASC_NODE":102.9205,"ARG_OF_PERICENTER":101.1644,"MEAN_ANOMALY":259.0459,"EPHEMERIS_TYPE":0,"CLASSIFICATION_TYPE":"U","NORAD_CAT_ID":65577,"ELEMENT_SET_NO":999,"REV_AT_EPOCH":2493,"BSTAR":5.1996e-5,"MEAN_MOTION_DOT":7.1e-7,"MEAN_MOTION_DDOT":0},{"OBJECT_NAME":"CZ-6A DEB","OBJECT_ID":"2022-151AEU","EPOCH":"2026-03-09T20:14:42.455616","MEAN_MOTION":13.87836273,"ECCENTRICITY":0.01566071,"INCLINATION":98.9233,"RA_OF_ASC_NODE":29.5355,"ARG_OF_PERICENTER":23.4646,"MEAN_ANOMALY":337.3559,"EPHEMERIS_TYPE":0,"CLASSIFICATION_TYPE":"U","NORAD_CAT_ID":56620,"ELEMENT_SET_NO":999,"REV_AT_EPOCH":15042,"BSTAR":0.0009724351,"MEAN_MOTION_DOT":1.231e-5,"MEAN_MOTION_DDOT":0}]
